INTELSAT 10 (IS-10)     
1 26766U 01019A   25300.18349014 -.00000225  00000+0  00000+0 0  9996
2 26766   8.5145  61.6156 0005592 201.5748 177.7954  0.99079613 43275
INTELSAT 902 (IS-902)   
1 26900U 01039A   25293.32763697 -.00000277  00000+0  00000+0 0  9999
2 26900   5.5084  74.6994 0004245 131.8341 250.3787  1.00271011 88298
INTELSAT 904 (IS-904)   
1 27380U 02007A   25300.25282383 -.00000211  00000+0  00000+0 0  9995
2 27380   6.3340  71.9677 0001660 103.0801 280.3955  1.00272427 49438
DIRECTV 5 (TEMPO 1)     
1 27426U 02023A   25300.50333314 -.00000044  00000+0  00000+0 0  9997
2 27426   4.2790  78.2047 0003325 146.3301 242.6850  1.00272098 85799
INTELSAT 905 (IS-905)   
1 27438U 02027A   25300.52102457  .00000108  00000+0  00000+0 0  9998
2 27438   6.1649  72.5910 0002450 138.1319 235.7919  1.00272172 49037
GALAXY 3C (G-3C)        
1 27445U 02030A   25300.50907274 -.00000140  00000+0  00000+0 0  9995
2 27445   3.1426  80.9828 0001751  66.7073 336.8886  1.00271964 44165
INTELSAT 906 (IS-906)   
1 27513U 02041A   25299.98638242  .00000026  00000+0  00000+0 0  9990
2 27513   5.2080  75.7850 0004920 171.0158 208.0467  1.00272086 84695
GALAXY 13 (HORIZONS-1)  
1 27954U 03044A   25300.51633617  .00000144  00000+0  00000+0 0  9997
2 27954   0.8134  87.0520 0002281 135.1188 209.8519  1.00272857 44236
INTELSAT 10-02          
1 28358U 04022A   25300.30531096 -.00000001  00000+0  00000+0 0  9991
2 28358   0.0031 117.5425 0001121  77.8396 309.5089  1.00263026 78225
XM-3 (RHYTHM)           
1 28626U 05008A   25299.96038229 -.00000245  00000+0  00000+0 0  9993
2 28626   0.0520  61.3857 0047675 110.1205 142.6121  1.01167010 40280
DIRECTV 8               
1 28659U 05019A   25300.49984248  .00000012  00000+0  00000+0 0  9994
2 28659   0.0171 253.1835 0003370 338.0967 225.7489  1.00272132 74744
GALAXY 28 (G-28)        
1 28702U 05022A   25299.95604894 -.00000175  00000+0  00000+0 0  9992
2 28702   2.6944  81.8230 0001596 166.1741  43.0791  1.00271595 49631
GALAXY 16 (G-16)        
1 29236U 06023A   25300.45351948 -.00000116  00000+0  00000+0 0  9999
2 29236   0.0221 175.7656 0002558  33.7931 250.7964  1.00271931 70635
DIRECTV 9S              
1 29494U 06043A   25300.50648586 -.00000102  00000+0  00000+0 0  9995
2 29494   1.8155  83.7253 0002842 124.8828 268.6668  1.00272499 49051
GALAXY 17 (G-17)        
1 31307U 07016B   25300.46143155 -.00000194  00000+0  00000+0 0  9990
2 31307   2.3780  82.8338 0006256 154.2231 240.1609  1.00273416 67475
DIRECTV 10              
1 31862U 07032A   25300.50592691 -.00000092  00000+0  00000+0 0  9999
2 31862   0.0115 358.3366 0000866 223.7792 253.3757  1.00272533 43265
INTELSAT 11 (IS-11)     
1 32253U 07044B   25300.41555927  .00000088  00000+0  00000+0 0  9992
2 32253   2.9542  81.5133 0008730 140.5262  33.0333  0.99047570 66141
HORIZONS-2              
1 32388U 07063B   25300.51714484 -.00000241  00000+0  00000+0 0  9990
2 32388   1.9968  83.4856 0003689 159.9221 265.1196  1.00270588 65482
DIRECTV 11              
1 32729U 08013A   25300.45603125 -.00000115  00000+0  00000+0 0  9997
2 32729   0.0045 121.2159 0000367 342.1690 357.6911  1.00272174 43267
GALAXY 18 (G-18)        
1 32951U 08024A   25300.44725141  .00000036  00000+0  00000+0 0  9999
2 32951   0.0188 246.1680 0003155 335.4183 212.5059  1.00274505 43518
INTELSAT 25 (IS-25)     
1 33153U 08034A   25300.39556456 -.00000211  00000+0  00000+0 0  9996
2 33153   2.1031  83.1834 0004561 152.6054 271.1632  1.00273013 63367
GALAXY 19 (G-19)        
1 33376U 08045A   25300.33594784 -.00000128  00000+0  00000+0 0  9992
2 33376   0.0155 250.0240 0002716 328.3284 201.5596  1.00271347 62566
FM-5                    
1 35493U 09034A   25300.51266163 -.00000189  00000+0  00000+0 0  9997
2 35493   0.0254 267.9905 0000769 208.2553  18.3296  1.00271106 44311
INTELSAT 14 (IS-14)     
1 36097U 09064A   25300.46409286 -.00000262  00000+0  00000+0 0  9992
2 36097   0.0055 343.9473 0002399 234.8760 299.3657  1.00270407 58277
INTELSAT 15 (IS-15)     
1 36106U 09067A   25300.49000632 -.00000174  00000+0  00000+0 0  9993
2 36106   0.0043 202.4890 0002155   2.8335  92.3618  1.00271424 38892
DIRECTV 12              
1 36131U 09075A   25300.50592720 -.00000093  00000+0  00000+0 0  9996
2 36131   0.0310  58.1061 0000476 189.0303 228.4187  1.00271602 44225
INTELSAT 16 (IS-16)     
1 36397U 10006A   25300.51591322 -.00000234  00000+0  00000+0 0  9991
2 36397   0.0142 283.3088 0002627 306.0161 276.3535  1.00271710 57320
XM-5                    
1 37185U 10053A   25300.02217594 -.00000012  00000+0  00000+0 0  9995
2 37185   0.0614 269.3971 0000872 199.2551 179.8157  1.00271556 55143
INTELSAT 17 (IS-17)     
1 37238U 10065B   25300.41486595  .00000009  00000+0  00000+0 0  9994
2 37238   0.0175 235.0376 0002444 345.4239  30.9345  1.00273324 50919
INTELSAT 28 (IS-28)     
1 37392U 11016A   25300.46669287 -.00000213  00000+0  00000+0 0  9996
2 37392   1.1996  85.6013 0003972 136.3767 310.4348  1.00270809 50958
INTELSAT 18 (IS-18)     
1 37834U 11056A   25300.50600258  .00000064  00000+0  00000+0 0  9992
2 37834   0.0137 264.5025 0001695 295.0103 198.8084  1.00270942 51473
INTELSAT 22 (IS-22)     
1 38098U 12011A   25300.41607927 -.00000047  00000+0  00000+0 0  9999
2 38098   0.0200 111.8965 0001836 111.6073  34.4264  1.00271296  4858
INTELSAT 19 (IS-19)     
1 38356U 12030A   25300.43462543 -.00000045  00000+0  00000+0 0  9990
2 38356   0.0128 284.9703 0002911 288.5316 145.0338  1.00269405 48112
INTELSAT 20 (IS-20)     
1 38740U 12043A   25300.41538595 -.00000013  00000+0  00000+0 0  9995
2 38740   0.0203 148.6045 0002285  33.5006  71.9716  1.00269297 48415
INTELSAT 21 (IS-21)     
1 38749U 12045A   25300.46166618 -.00000274  00000+0  00000+0 0  9993
2 38749   0.0325  70.6430 0002434 153.6639 279.9975  1.00271120 48193
INTELSAT 23 (IS-23)     
1 38867U 12057A   25300.39123122 -.00000273  00000+0  00000+0 0  9991
2 38867   0.0138 248.7003 0002431 353.2194 241.9677  1.00275904 47620
FM-6                    
1 39360U 13058A   25300.11757652 -.00000005  00000+0  00000+0 0  9996
2 39360   0.0214 146.6233 0002600  28.0233 147.2729  1.00270259 43736
INTELSAT 30 (IS-30)     
1 40271U 14062A   25300.02616262 -.00000139  00000+0  00000+0 0  9994
2 40271   0.0173 298.4818 0001668 139.1777 232.3751  1.00270580  4441
DIRECTV 14              
1 40333U 14078B   25300.45603141 -.00000114  00000+0  00000+0 0  9992
2 40333   0.0160 252.9571 0000325 181.2445  26.8422  1.00271552 39715
DIRECTV 15              
1 40663U 15026A   25300.50592666 -.00000092  00000+0  00000+0 0  9992
2 40663   0.0468  76.8150 0000417 348.4755  50.1342  1.00270203 38139
SKY MEXICO-1            
1 40664U 15026B   25300.51535639 -.00000223  00000+0  00000+0 0  9997
2 40664   0.0267 274.3951 0002049 300.9725 287.5498  1.00271787 38129
INTELSAT 34 (IS-34)     
1 40874U 15039A   25300.39079786 -.00000274  00000+0  00000+0 0  9992
2 40874   0.0221 272.4592 0000579 175.5137  33.2403  1.00272290 37290
INTELSAT 31 (IS-31)     
1 41581U 16035A   25300.02616262 -.00000139  00000+0  00000+0 0  9991
2 41581   0.0151 244.2264 0001644 331.0810  94.7128  1.00272205 34347
INTELSAT 36 (IS-36)     
1 41747U 16053A   25300.48671299 -.00000013  00000+0  00000+0 0  9997
2 41747   0.0139 304.8410 0001289  50.8285 284.1628  1.00268704 33618
INTELSAT 32E (IS-32E)   
1 41945U 17007B   25300.25048382 -.00000257  00000+0  00000+0 0  9993
2 41945   0.0069 175.7703 0000523 305.5447 321.5780  1.00272462 31888
INTELSAT 35E (IS-35E)   
1 42818U 17041A   25300.46625955 -.00000226  00000+0  00000+0 0  9997
2 42818   0.0158 255.7190 0002118 309.7120 324.0436  1.00272340 30488
INTELSAT 37E (IS-37E)   
1 42950U 17059A   25300.39825125 -.00000129  00000+0  00000+0 0  9998
2 42950   0.0138 265.6812 0002913 308.9328 306.7948  1.00270750 29732
AZERSPACE 2 (IS-38)     
1 43632U 18074A   25300.48211963  .00000148  00000+0  00000+0 0  9993
2 43632   0.0157 254.7868 0001336 302.7153  57.2880  1.00270811 26117
HORIZONS-3E             
1 43633U 18074B   25300.31780830 -.00000018  00000+0  00000+0 0  9997
2 43633   0.0036 175.7246 0000875 118.7400  24.9222  1.00272796 26006
AT&T T-16               
1 44333U 19034A   25300.50659728 -.00000104  00000+0  00000+0 0  9990
2 44333   0.0322  72.1484 0000611  42.6488   2.8646  1.00270785 23306
INTELSAT 39 (IS-39)     
1 44476U 19049B   25300.41408595  .00000044  00000+0  00000+0 0  9990
2 44476   0.0147 260.1301 0000574 205.3778 141.5584  1.00271086 22793
GALAXY 30 (G-30)        
1 46114U 20056C   25299.94885558  .00000048  00000+0  00000+0 0  9998
2 46114   0.0184 259.6118 0002536 314.5834  38.0029  1.00272963 18952
GALAXY 33 (G-33)        
1 54026U 22128A   25300.52303075  .00000090  00000+0  00000+0 0  9994
2 54026   0.0190 275.0586 0001724 284.1557 252.2458  1.00270461 11403
GALAXY 34 (G-34)        
1 54027U 22128B   25300.52437943  .00000070  00000+0  00000+0 0  9995
2 54027   0.0216 273.2567 0001541 304.6739 238.0098  1.00271960 11585
GALAXY 31 (G-31)        
1 54243U 22153A   25300.52773166  .00000024  00000+0  00000+0 0  9992
2 54243   0.0212 244.7516 0001482 342.0881 238.3019  1.00272807  4800
GALAXY 32 (G-32)        
1 54244U 22153B   25300.29643882 -.00000163  00000+0  00000+0 0  9993
2 54244   0.0129 290.3467 0001076   0.8430 120.4688  1.00271927 10800
GALAXY 35 (G-35)        
1 54741U 22170A   25300.50985822 -.00000151  00000+0  00000+0 0  9998
2 54741   0.0187 147.8263 0001960  66.6733 272.0902  1.00271429 10567
GALAXY 36 (G-36)        
1 54742U 22170B   25300.46008066 -.00000174  00000+0  00000+0 0  9995
2 54742   0.0087 220.6838 0001138 295.1888 316.8541  1.00271297 10448
GALAXY 37 (G-37)        
1 57493U 23112A   25300.49635183  .00000059  00000+0  00000+0 0  9998
2 57493   0.0153 272.4524 0001921 304.1000 231.2659  1.00271677  8205
